LEMUR-2-PETERG          
1 42841U 17042S   26068.48235713  .00023240  00000+0  81076-3 0  9993
2 42841  97.3980 253.6596 0003700 341.6938  18.4169 15.29611459473171
STARLINK-34398          
1 64445U 25130H   26068.32472272  .00022587  00000+0  77254-3 0  9996
2 64445  53.1598  90.4840 0001244  88.7999 271.3144 15.30194482 40645
